MAYA-1                  
1 43590U 98067PE  19190.39592485  .00010888  00000-0  12725-3 0  9991
2 43590  51.6354 238.3069 0004777 235.2192 124.8353 15.62165117 51914
BHUTAN-1                
1 43591U 98067PF  19190.51377620  .00009959  00000-0  11665-3 0  9997
2 43591  51.6365 237.6160 0004887 236.7940 123.2586 15.62223914 51933
SIRIUSSAT-1             
1 43595U 98067PG  19190.76675381  .00008806  00000-0  10716-3 0  9999
2 43595  51.6356 237.7829 0002744 186.1547 173.9414 15.61403196 51136
SIRIUSSAT-2             
1 43596U 98067PH  19190.60725021  .00009161  00000-0  11190-3 0  9992
2 43596  51.6365 239.0037 0003283 186.3776 173.7176 15.61242579 51104
TANUSHA-3               
1 43597U 98067PJ  19190.83979616  .00012248  00000-0  13866-3 0  9991
2 43597  51.6348 235.9940 0002603 208.6820 151.4032 15.62858194 51164
SURFSAT                 
1 43614U 18070B   19190.94503100  .00001928  00000-0  52378-4 0  9995
2 43614  93.0224  12.4346 0014099 216.3874 143.6422 15.37584700 45678
CP7 (DAVE)              
1 43615U 18070C   19190.95185533  .00001761  00000-0  47978-4 0  9998
2 43615  93.0225  12.4384 0014286 215.4724 144.5581 15.37501245 45673
ELFIN-B                 
1 43616U 18070D   19190.95107074  .00002924  00000-0  77900-4 0  9993
2 43616  93.0196  12.3503 0014983 219.6946 140.3212 15.38137159 45685
ELFIN-A                 
1 43617U 18070E   19190.94434453  .00003077  00000-0  81879-4 0  9997
2 43617  93.0252  12.5792 0014218 215.9651 144.0647 15.38185420 45681
CUBEBEL-1 (BSUSAT-1)    
1 43666U 18083E   19190.85825436  .00000782  00000-0  42203-4 0  9998
2 43666  97.5183 215.1923 0016639 112.5966  12.9091 15.17605993 38490
DEBRISSAT-2             
1 43680U 98067PR  19190.74804151  .00016451  00000-0  17810-3 0  9998
2 43680  51.6358 236.1720 0002390 236.1612 123.9155 15.63717171 59882
CICERO 10               
1 43690U 18088A   19190.83005469  .00000801  00000-0  35553-4 0  9996
2 43690  85.0390 304.5894 0017049 125.6036 234.6796 15.19682483 36560
IRVINE01                
1 43693U 18088D   19190.79399498  .00001834  00000-0  79469-4 0  9993
2 43693  85.0364 304.1784 0020672 113.2846 247.0575 15.21436928 36574
PROXIMA I               
1 43694U 18088E   19190.81808470  .00000771  00000-0  32307-4 0  9991
2 43694  85.0334 303.9885 0021775 105.2883 255.0767 15.21406819 36598
PROXIMA II              
1 43696U 18088G   19190.75138300  .00000769  00000-0  32236-4 0  9992
2 43696  85.0335 304.0335 0021803 105.4591 254.9061 15.21411888 36578
FACSAT-1                
1 43721U 18096C   19190.91116676  .00001041  00000-0  42851-4 0  9998
2 43721  97.4588 260.7419 0016338 253.4076 106.5368 15.26325487 33971
CENTAURI-2              
1 43722U 18096D   19190.88864969  .00001218  00000-0  49315-4 0  9998
2 43722  97.4589 260.7718 0016493 254.2781 105.6638 15.26548283 33969
INNOSAT-2               
1 43738U 18096V   19190.92070400  .00001604  00000-0  59846-4 0  9998
2 43738  97.4593 261.4955 0022741 266.6274  93.2364 15.28709100 34024
SIRION PATHFINDER-2     
1 43759U 18099B   19190.93415366  .00000229  00000-0  26161-4 0  9995
2 43759  97.7440 262.6585 0012961 247.2288 112.7564 14.95133297 32608
CORVUS-BC 4             
1 43767U 18099K   19190.94814597  .00000494  00000-0  50935-4 0  9994
2 43767  97.7429 262.4458 0010351 250.1553 109.8551 14.94578888 32599
SHIELDS 1               
1 43850U 18104B   19190.63254292  .00000041  00000-0  00000-0 0  9992
2 43850  85.0271  42.6125 0012472 251.2624 108.7294 15.21092947 31200
STF-1                   
1 43852U 18104D   19190.57861420  .00000040  00000-0  00000-0 0  9993
2 43852  85.0295  42.8916 0012355 268.8061  91.1910 15.20621676 31180
ZACUBE-2                
1 43907U 18111AH  19190.81545699  .00000337  00000-0  16641-4 0  9997
2 43907  97.2888  95.4723 0019988 277.7653  82.1316 15.24201527 29662
LUME 1                  
1 43908U 18111AJ  19190.80634608  .00000698  00000-0  31271-4 0  9992
2 43908  97.2887  95.4827 0019922 278.0655  81.8323 15.24357644 29667
AOBA VELOX-IV           
1 43940U 19003J   19190.76998715  .00001118  00000-0  48933-4 0  9997
2 43940  97.2751 248.0563 0024564   1.8498 137.2444 15.23845276 26299
CATSAT-2                
1 44029U 98067PV  19190.79775182  .00006429  00000-0  95030-4 0  9997
2 44029  51.6387 245.5317 0004544 226.5005 133.5610 15.56709219 24869
DELPHINI                
1 44030U 98067PW  19190.59793301  .00007034  00000-0  10286-3 0  9992
2 44030  51.6375 246.4359 0004066 225.6953 134.3706 15.56830594 24805
UNITE                   
1 44031U 98067PX  19190.58228627  .00004648  00000-0  72807-4 0  9992
2 44031  51.6383 247.0840 0002836 218.6792 141.3996 15.55853050 24791
TECHEDSAT 8             
1 44032U 98067PY  19190.35848998  .00020259  00000-0  24870-3 0  9999
2 44032  51.6372 245.5888 0002692 236.5515 123.5221 15.60284724 24770
CATSAT-1                
1 44033U 98067PZ  19190.79763431  .00006709  00000-0  98884-4 0  9997
2 44033  51.6388 245.5314 0004304 226.8544 133.2088 15.56704038 24777
NEPALISAT-1             
1 44329U 98067QE  19190.57612207  .00004771  00000-0  84881-4 0  9994
2 44329  51.6405 250.0451 0007247 157.9515 202.1787 15.52173691  3500
RAAVANA-1               
1 44330U 98067QF  19190.57664410  .00004714  00000-0  84066-4 0  9991
2 44330  51.6405 250.0485 0007238 156.6659 203.4661 15.52136559  3488
UGUISU                  
1 44331U 98067QG  19190.57561311  .00004744  00000-0  84345-4 0  9991
2 44331  51.6405 250.0418 0007270 159.3283 200.8002 15.52208989  3492
SPOOQY-1                
1 44332U 98067QH  19190.57508246  .00004759  00000-0  84494-4 0  9991
2 44332  51.6403 250.0377 0006006 160.8273 199.2944 15.52246543  3457
